NORAD_CAT_ID,OBJECT_NAME,OBJECT_TYPE,EPOCH,MEAN_MOTION,ECCENTRICITY,INCLINATION,RA_OF_ASC_NODE,ARG_OF_PERICENTER,MEAN_ANOMALY,BSTAR,MEAN_MOTION_DOT,MEAN_MOTION_DDOT,TLE_LINE0,TLE_LINE1,TLE_LINE2,SEMIMAJOR_AXIS,PERIOD,APOGEE,PERIGEE,DECAYED
56481.0,STARLINK-6222,PAYLOAD,2024-04-11 04:38:28,14.98330315,0.0002879,69.9989,82.9904,267.9372,92.1457,-5.9326e-05,-8.01e-06,0.0,0 STARLINK-6222,1 56481U 23064AK  24102.19338369 -.00000801  00000-0 -59326-4 0  9990,2 56481  69.9989  82.9904 0002879 267.9372  92.1457 14.98330315 51629,6950.192,96.107,574.058,570.056,0.0
56481.0,STARLINK-6222,PAYLOAD,2024-04-11 09:26:52,14.98333836,0.0002802,69.9992,82.4839,265.8714,94.2125,3.7815e-05,3.58e-06,0.0,0 STARLINK-6222,1 56481U 23064AK  24102.39365818  .00000358  00000-0  37815-4 0  9995,2 56481  69.9992  82.4839 0002802 265.8714  94.2125 14.98333836 51657,6950.181,96.107,573.993,570.099,0.0
56481.0,STARLINK-6222,PAYLOAD,2024-04-11 15:51:23,14.98346021,0.0003242,69.999,81.8116,269.4957,90.5831,0.00014467,1.634e-05,0.0,0 STARLINK-6222,1 56481U 23064AK  24102.66068470  .00001634  00000-0  14467-3 0  9994,2 56481  69.9990  81.8116 0003242 269.4957  90.5831 14.98346021 51691,6950.143,96.106,574.262,569.755,0.0
56481.0,STARLINK-6222,PAYLOAD,2024-04-12 04:40:27,14.98344503,0.0002876,69.9995,80.4654,268.7796,91.3034,0.00013823,1.557e-05,0.0,0 STARLINK-6222,1 56481U 23064AK  24103.19476208  .00001557  00000-0  13823-3 0  9994,2 56481  69.9995  80.4654 0002876 268.7796  91.3034 14.98344503 51779,6950.148,96.106,574.012,570.014,0.0
56481.0,STARLINK-6222,PAYLOAD,2024-04-12 09:28:51,14.98348733,0.000298,69.999,79.9606,268.4838,91.5979,0.00014626,1.653e-05,0.0,0 STARLINK-6222,1 56481U 23064AK  24103.39503650  .00001653  00000-0  14626-3 0  9997,2 56481  69.9990  79.9606 0002980 268.4838  91.5979 14.98348733 51807,6950.135,96.106,574.071,569.929,0.0
56481.0,STARLINK-6222,PAYLOAD,2024-04-13 04:42:30,14.98319814,0.0003148,69.999,77.94,267.9963,92.0836,-0.00013054,-1.65e-05,0.0,0 STARLINK-6222,1 56481U 23064AK  24104.19618164 -.00001650  00000-0 -13054-3 0  9996,2 56481  69.9990  77.9400 0003148 267.9963  92.0836 14.98319814 51926,6950.224,96.108,574.277,569.901,0.0
56481.0,STARLINK-6222,PAYLOAD,2024-04-13 07:54:46,14.98321441,0.0003149,69.9991,77.6035,266.9937,93.0861,-0.0001111,-1.418e-05,0.0,0 STARLINK-6222,1 56481U 23064AK  24104.32970049 -.00001418  00000-0 -11110-3 0  9997,2 56481  69.9991  77.6035 0003149 266.9937  93.0861 14.98321441 51949,6950.219,96.108,574.273,569.896,0.0
56481.0,STARLINK-6222,PAYLOAD,2024-04-14 04:44:33,14.98298908,0.0002901,69.9998,75.415,265.1694,94.9133,-0.00050106,-6.062e-05,0.0,0 STARLINK-6222,1 56481U 23064AK  24105.19761201 -.00006062  00000-0 -50106-3 0  9999,2 56481  69.9998  75.4150 0002901 265.1694  94.9133 14.98298908 52074,6950.289,96.109,574.17,570.138,0.0
56481.0,STARLINK-6222,PAYLOAD,2024-04-14 07:56:49,14.98300244,0.0002945,69.9997,75.0786,266.8744,93.2078,-0.00047171,-5.712e-05,0.0,0 STARLINK-6222,1 56481U 23064AK  24105.33113285 -.00005712  00000-0 -47171-3 0  9997,2 56481  69.9997  75.0786 0002945 266.8744  93.2078 14.98300244 52095,6950.285,96.109,574.197,570.103,0.0
56481.0,STARLINK-6222,PAYLOAD,2024-04-14 22:22:01,14.98312231,0.0002925,69.9999,73.5643,269.7014,90.381,8.1759e-05,8.82e-06,0.0,0 STARLINK-6222,1 56481U 23064AK  24105.93195840  .00000882  00000-0  81759-4 0  9992,2 56481  69.9999  73.5643 0002925 269.7014  90.3810 14.98312231 51823,6950.248,96.108,574.146,570.08,0.0
56481.0,STARLINK-6222,PAYLOAD,2024-04-15 04:46:32,14.98323171,0.0002776,70.0011,72.8925,245.5776,114.5094,0.00023068,2.66e-05,0.0,0 STARLINK-6222,1 56481U 23064AK  24106.19898939  .00002660  00000-0  23068-3 0  9994,2 56481  70.0011  72.8925 0002776 245.5776 114.5094 14.98323171 52220,6950.214,96.107,574.008,570.15,0.0
56481.0,STARLINK-6222,PAYLOAD,2024-04-15 07:58:48,14.98324598,0.0002795,70.001,72.5556,248.4116,111.6746,0.00023628,2.727e-05,0.0,0 STARLINK-6222,1 56481U 23064AK  24106.33250929  .00002727  00000-0  23628-3 0  9997,2 56481  70.0010  72.5556 0002795 248.4116 111.6746 14.98324598 52245,6950.21,96.107,574.017,570.132,0.0
56481.0,STARLINK-6222,PAYLOAD,2024-04-16 04:48:32,14.98343757,0.0002752,70.0001,70.3663,257.2428,102.8423,0.00035145,4.104e-05,0.0,0 STARLINK-6222,1 56481U 23064AK  24107.20037388  .00004104  00000-0  35145-3 0  9994,2 56481  70.0001  70.3663 0002752 257.2428 102.8423 14.98343757 52373,6950.15,96.106,573.928,570.103,0.0
56481.0,STARLINK-6222,PAYLOAD,2024-04-16 08:00:48,14.9833834,0.0003041,70.0002,70.0293,258.9641,101.1176,0.00057694,6.799e-05,0.0,0 STARLINK-6222,1 56481U 23064AK  24107.33389043  .00006799  00000-0  57694-3 0  9991,2 56481  70.0002  70.0293 0003041 258.9641 101.1176 14.98338340 52398,6950.167,96.106,574.146,569.919,0.0
56481.0,STARLINK-6222,PAYLOAD,2024-04-16 14:25:21,14.98328824,0.0003098,70.0002,69.3556,266.6984,93.382,0.00036823,4.303e-05,0.0,0 STARLINK-6222,1 56481U 23064AK  24107.60094152  .00004303  00000-0  36823-3 0  9995,2 56481  70.0002  69.3556 0003098 266.6984  93.3820 14.98328824 52078,6950.197,96.107,574.215,569.908,0.0
56481.0,STARLINK-6222,PAYLOAD,2024-04-16 19:13:45,14.98341297,0.0002591,70.002,68.8507,266.1577,93.9286,0.00013646,1.536e-05,0.0,0 STARLINK-6222,1 56481U 23064AK  24107.80121925  .00001536  00000-0  13646-3 0  9999,2 56481  70.0020  68.8507 0002591 266.1577  93.9286 14.98341297 52462,6950.158,96.106,573.824,570.222,0.0
56481.0,STARLINK-6222,PAYLOAD,2024-04-16 22:26:01,14.98346559,0.0002603,70.0011,68.5151,256.1895,103.8975,3.2395e-05,2.94e-06,0.0,0 STARLINK-6222,1 56481U 23064AK  24107.93473799  .00000294  00000-0  32395-4 0  9995,2 56481  70.0011  68.5151 0002603 256.1895 103.8975 14.98346559 52125,6950.142,96.106,573.816,570.198,0.0
56481.0,STARLINK-6222,PAYLOAD,2024-04-17 04:50:33,14.98349445,0.0003022,70.0002,67.8411,252.3675,107.7154,9.4771e-06,2e-07,0.0,0 STARLINK-6222,1 56481U 23064AK  24108.20177268  .00000020  00000-0  94771-5 0  9992,2 56481  70.0002  67.8411 0003022 252.3675 107.7154 14.98349445 52529,6950.133,96.106,574.098,569.897,0.0
56481.0,STARLINK-6222,PAYLOAD,2024-04-17 08:02:48,14.9835179,0.0003011,70.0003,67.5047,254.317,105.7657,3.5713e-05,3.33e-06,0.0,0 STARLINK-6222,1 56481U 23064AK  24108.33528855  .00000333  00000-0  35713-4 0  9995,2 56481  70.0003  67.5047 0003011 254.3170 105.7657 14.98351790 52546,6950.126,96.106,574.083,569.898,0.0
56481.0,STARLINK-6222,PAYLOAD,2024-04-18 04:52:35,14.98326722,0.0002839,70.0011,65.3162,242.6491,117.4379,-0.00029224,-3.578e-05,0.0,0 STARLINK-6222,1 56481U 23064AK  24109.20318971 -.00003578  00000-0 -29224-3 0  9993,2 56481  70.0011  65.3162 0002839 242.6491 117.4379 14.98326722 52674,6950.203,96.107,574.041,570.095,0.0
56481.0,STARLINK-6222,PAYLOAD,2024-04-18 06:28:43,14.9832383,0.0002854,70.0014,65.1469,241.9744,118.1126,-0.0002527,-3.106e-05,0.0,0 STARLINK-6222,1 56481U 23064AK  24109.26995051 -.00003106  00000-0 -25270-3 0  9993,2 56481  70.0014  65.1469 0002854 241.9744 118.1126 14.98323830 52681,6950.212,96.107,574.061,570.093,0.0
56481.0,STARLINK-6222,PAYLOAD,2024-04-19 04:54:35,14.98335904,0.000316,70.0008,62.7914,262.673,97.407,6.8591e-05,7.26e-06,0.0,0 STARLINK-6222,1 56481U 23064AK  24110.20457287  .00000726  00000-0  68591-4 0  9990,2 56481  70.0008  62.7914 0003160 262.6730  97.4070 14.98335904 52826,6950.175,96.107,574.236,569.843,0.0
56481.0,STARLINK-6222,PAYLOAD,2024-04-19 06:30:43,14.98339193,0.0003361,70.0008,62.6245,271.158,88.9194,6.5255e-05,6.86e-06,0.0,0 STARLINK-6222,1 56481U 23064AK  24110.27133103  .00000686  00000-0  65255-4 0  9994,2 56481  70.0008  62.6245 0003361 271.1580  88.9194 14.98339193 52830,6950.164,96.106,574.365,569.694,0.0
56481.0,STARLINK-6222,PAYLOAD,2024-04-19 20:55:55,14.98325445,0.0002709,70.0013,61.1094,253.3599,106.7263,0.00017109,1.949e-05,0.0,0 STARLINK-6222,1 56481U 23064AK  24110.87217515  .00001949  00000-0  17109-3 0  9997,2 56481  70.0013  61.1094 0002709 253.3599 106.7263 14.98325445 52920,6950.207,96.107,573.955,570.189,0.0
56481.0,STARLINK-6222,PAYLOAD,2024-04-19 22:32:04,14.9831082,0.0002738,70.0017,60.9404,266.8539,93.2306,0.00044957,5.273e-05,0.0,0 STARLINK-6222,1 56481U 23064AK  24110.93893546  .00005273  00000-0  44957-3 0  9993,2 56481  70.0017  60.9404 0002738 266.8539  93.2306 14.98310820 52571,6950.252,96.108,574.02,570.214,0.0
56481.0,STARLINK-6222,PAYLOAD,2024-04-20 04:56:35,14.98334068,0.0002331,70.0023,60.268,240.1475,119.9453,0.00027614,3.204e-05,0.0,0 STARLINK-6222,1 56481U 23064AK  24111.20596666  .00003204  00000-0  27614-3 0  9990,2 56481  70.0023  60.2680 0002331 240.1475 119.9453 14.98334068 52973,6950.18,96.107,573.665,570.425,0.0
56481.0,STARLINK-6222,PAYLOAD,2024-04-20 06:32:43,14.98334859,0.0002165,70.0024,60.0989,250.8679,109.2245,0.00029003,3.37e-05,0.0,0 STARLINK-6222,1 56481U 23064AK  24111.27272632  .00003370  00000-0  29003-3 0  9999,2 56481  70.0024  60.0989 0002165 250.8679 109.2245 14.98334859 52983,6950.178,96.107,573.548,570.538,0.0
56481.0,STARLINK-6222,PAYLOAD,2024-04-20 20:57:58,14.98314626,0.0002716,70.0019,58.5849,259.8277,100.2576,-0.00024111,-2.967e-05,0.0,0 STARLINK-6222,1 56481U 23064AK  24111.87359620 -.00002967  00000-0 -24111-3 0  9996,2 56481  70.0019  58.5849 0002716 259.8277 100.2576 14.98314626 53078,6950.24,96.108,573.993,570.218,0.0
56481.0,STARLINK-6222,PAYLOAD,2024-04-21 04:58:39,14.98314136,0.0002749,70.0014,57.7449,253.0427,107.0431,-0.00025562,-3.14e-05,0.0,0 STARLINK-6222,1 56481U 23064AK  24112.20739940 -.00003140  00000-0 -25562-3 0  9996,2 56481  70.0014  57.7449 0002749 253.0427 107.0431 14.98314136 53126,6950.242,96.108,574.018,570.196,0.0
56481.0,STARLINK-6222,PAYLOAD,2024-04-21 06:34:47,14.98315083,0.0002761,70.0016,57.5769,249.3325,110.7538,-0.00024025,-2.957e-05,0.0,0 STARLINK-6222,1 56481U 23064AK  24112.27415879 -.00002957  00000-0 -24025-3 0  9993,2 56481  70.0016  57.5769 0002761 249.3325 110.7538 14.98315083 52771,6950.239,96.108,574.023,570.185,0.0
